STARLINK-31949          
1 59891U 24100G   26068.20680872 -.00005542  00000+0 -19194-3 0  9998
2 59891  42.9998 128.0653 0001478 116.9776 243.1227 15.27593382100981
TOMORROW-S4             
1 62386U 24247K   26068.53305366  .00012677  00000+0  46927-3 0  9990
2 62386  44.9818 117.9996 0004434 210.4078 149.6548 15.27717249 67702
